[{"OBJECT_NAME":"NINGXIA-1 4","OBJECT_ID":"2019-076D","EPOCH":"2026-03-09T22:43:42.811392","MEAN_MOTION":14.02017306,"ECCENTRICITY":0.00127515,"INCLINATION":45.0076,"RA_OF_ASC_NODE":263.3114,"ARG_OF_PERICENTER":13.0472,"MEAN_ANOMALY":347.069,"EPHEMERIS_TYPE":0,"CLASSIFICATION_TYPE":"U","NORAD_CAT_ID":44782,"ELEMENT_SET_NO":999,"REV_AT_EPOCH":32389,"BSTAR":0.00011688913,"MEAN_MOTION_DOT":5.0e-7,"MEAN_MOTION_DDOT":0},{"OBJECT_NAME":"CZ-4 DEB","OBJECT_ID":"1990-081BA","EPOCH":"2026-03-09T09:54:50.826528","MEAN_MOTION":14.07168913,"ECCENTRICITY":0.0014326,"INCLINATION":98.9292,"RA_OF_ASC_NODE":49.8724,"ARG_OF_PERICENTER":37.2009,"MEAN_ANOMALY":323.015,"EPHEMERIS_TYPE":0,"CLASSIFICATION_TYPE":"U","NORAD_CAT_ID":20890,"ELEMENT_SET_NO":999,"REV_AT_EPOCH":81636,"BSTAR":7.863562e-5,"MEAN_MOTION_DOT":8.8e-7,"MEAN_MOTION_DDOT":0}]
